[
    {
        "CCSDS_OMM_VERS": "3.0",
        "COMMENT": "GENERATED VIA SPACE-TRACK.ORG API",
        "CREATION_DATE": "2025-04-14T03:05:54",
        "ORIGINATOR": "18 SPCS",
        "OBJECT_NAME": "GALILEO 26 (2C2)",
        "OBJECT_ID": "2018-060B",
        "CENTER_NAME": "EARTH",
        "REF_FRAME": "TEME",
        "TIME_SYSTEM": "UTC",
        "MEAN_ELEMENT_THEORY": "SGP4",
        "EPOCH": "2025-04-12T17:32:11.778432",
        "MEAN_MOTION": "1.70475517",
        "ECCENTRICITY": "0.00030410",
        "INCLINATION": "57.2822",
        "RA_OF_ASC_NODE": "353.4003",
        "ARG_OF_PERICENTER": "287.1883",
        "MEAN_ANOMALY": "72.8240",
        "EPHEMERIS_TYPE": "0",
        "CLASSIFICATION_TYPE": "U",
        "NORAD_CAT_ID": "43565",
        "ELEMENT_SET_NO": "999",
        "REV_AT_EPOCH": "4187",
        "BSTAR": "0.00000000000000",
        "MEAN_MOTION_DOT": "-0.00000094",
        "MEAN_MOTION_DDOT": "0.0000000000000",
        "SEMIMAJOR_AXIS": "29600.144",
        "PERIOD": "844.696",
        "APOAPSIS": "23231.011",
        "PERIAPSIS": "23213.008",
        "OBJECT_TYPE": "PAYLOAD",
        "RCS_SIZE": "LARGE",
        "COUNTRY_CODE": "ESA",
        "LAUNCH_DATE": "2018-07-25",
        "SITE": "FRGUI",
        "DECAY_DATE": null,
        "FILE": "4701263",
        "GP_ID": "285538477",
        "TLE_LINE0": "0 GALILEO 26 (2C2)",
        "TLE_LINE1": "1 43565U 18060B   25102.73069188 -.00000094  00000-0  00000-0 0  9994",
        "TLE_LINE2": "2 43565  57.2822 353.4003 0003041 287.1883  72.8240  1.70475517 41874"
    }
]